{"fetched_at":"2026-03-30T06:02:59Z","count":15439,"tles":[{"name":"STARLINK-30583","line1":"1 58086U 23160M   26087.95789851  .00005346  00000+0  20876-3 0  9997","line2":"2 58086  43.0023 332.3851 0001299 261.3480  98.7225 15.26754230135851","category":"Starlink"}]}